{"type": "FeatureCollection", "features": [ {"type": "Feature", "properties": {"norad_id": 29906, "name": "FENGYUN 1C DEB", "group": "fengyun-1c-debris", "lat": -20.963320224692865, "lon": -80.28925494923459, "alt_km": 730.8230199039654, "timestamp": "2025-12-25T07:41:09.995309+00:00", "meta": {"OBJECT_NAME": "FENGYUN 1C DEB", "OBJECT_ID": "1999-025HC", "EPOCH": "2025-12-24T19:10:15.041280", "MEAN_MOTION": 14.49833149, "ECCENTRICITY": 0.00362733, "INCLINATION": 98.7054, "RA_OF_ASC_NODE": 102.5377, "ARG_OF_PERICENTER": 113.7555, "MEAN_ANOMALY": 246.7449, "EPHEMERIS_TYPE": 0, "CLASSIFICATION_TYPE": "U", "NORAD_CAT_ID": 29906, "ELEMENT_SET_NO": 999, "REV_AT_EPOCH": 98332, "BSTAR": 0.0022244423, "MEAN_MOTION_DOT": 8.618e-05, "MEAN_MOTION_DDOT": 0}, "tle": {"line1": "1 29906U 99025HC  25358.79878520  .00008618  00000+0  22244-2 0  9998", "line2": "2 29906  98.7054 102.5377 0036273 113.7555 246.7449 14.49833149983321"}}, "geometry": {"type": "Point", "coordinates": [-80.28925494923459, -20.963320224692865]}}, {"type": "Feature", "properties": {"norad_id": 29907, "name": "FENGYUN 1C DEB", "group": "fengyun-1c-debris", "lat": 62.857685056747435, "lon": 47.94827817933352, "alt_km": 900.4544201865765, "timestamp": "2025-12-25T07:41:09.995319+00:00", "meta": {"OBJECT_NAME": "FENGYUN 1C DEB", "OBJECT_ID": "1999-025HD", "EPOCH": "2025-12-24T16:47:32.823744", "MEAN_MOTION": 14.11702039, "ECCENTRICITY": 0.00848307, "INCLINATION": 99.1106, "RA_OF_ASC_NODE": 65.5588, "ARG_OF_PERICENTER": 216.2657, "MEAN_ANOMALY": 296.5176, "EPHEMERIS_TYPE": 0, "CLASSIFICATION_TYPE": "U", "NORAD_CAT_ID": 29907, "ELEMENT_SET_NO": 999, "REV_AT_EPOCH": 96767, "BSTAR": 0.0015813205, "MEAN_MOTION_DOT": 2.932e-05, "MEAN_MOTION_DDOT": 0}, "tle": {"line1": "1 29907U 99025HD  25358.69968546  .00002932  00000+0  15813-2 0  9993", "line2": "2 29907  99.1106  65.5588 0084830 216.2657 296.5176 14.11702039967673"}}, "geometry": {"type": "Point", "coordinates": [47.94827817933352, 62.857685056747435]}}, {"type": "Feature", "properties": {"norad_id": 29909, "name": "FENGYUN 1C DEB", "group": "fengyun-1c-debris", "lat": 15.360840038004701, "lon": -74.06727186620262, "alt_km": 735.736519067239, "timestamp": "2025-12-25T07:41:09.995329+00:00", "meta": {"OBJECT_NAME": "FENGYUN 1C DEB", "OBJECT_ID": "1999-025HF", "EPOCH": "2025-12-24T06:25:38.915328", "MEAN_MOTION": 14.5530483, "ECCENTRICITY": 0.00380692, "INCLINATION": 98.6341, "RA_OF_ASC_NODE": 102.4532, "ARG_OF_PERICENTER": 338.7731, "MEAN_ANOMALY": 74.9686, "EPHEMERIS_TYPE": 0, "CLASSIFICATION_TYPE": "U", "NORAD_CAT_ID": 29909, "ELEMENT_SET_NO": 999, "REV_AT_EPOCH": 98573, "BSTAR": 0.0021561397, "MEAN_MOTION_DOT": 9.398e-05, "MEAN_MOTION_DDOT": 0}, "tle": {"line1": "1 29909U 99025HF  25358.26781152  .00009398  00000+0  21561-2 0  9994", "line2": "2 29909  98.6341 102.4532 0038069 338.7731  74.9686 14.55304830985732"}}, "geometry": {"type": "Point", "coordinates": [-74.06727186620262, 15.360840038004701]}}, {"type": "Feature", "properties": {"norad_id": 29911, "name": "FENGYUN 1C DEB", "group": "fengyun-1c-debris", "lat": 71.9267149255413, "lon": -109.74884686244111, "alt_km": 802.7039968632253, "timestamp": "2025-12-25T07:41:09.995339+00:00", "meta": {"OBJECT_NAME": "FENGYUN 1C DEB", "OBJECT_ID": "1999-025HH", "EPOCH": "2025-12-24T14:58:16.463424", "MEAN_MOTION": 14.18888295, "ECCENTRICITY": 0.00274094, "INCLINATION": 98.7142, "RA_OF_ASC_NODE": 41.5333, "ARG_OF_PERICENTER": 118.0572, "MEAN_ANOMALY": 32.3815, "EPHEMERIS_TYPE": 0, "CLASSIFICATION_TYPE": "U", "NORAD_CAT_ID": 29911, "ELEMENT_SET_NO": 999, "REV_AT_EPOCH": 97599, "BSTAR": 0.00066743347, "MEAN_MOTION_DOT": 1.352e-05, "MEAN_MOTION_DDOT": 0}, "tle": {"line1": "1 29911U 99025HH  25358.62380166  .00001352  00000+0  66743-3 0  9991", "line2": "2 29911  98.7142  41.5333 0027409 118.0572  32.3815 14.18888295975995"}}, "geometry": {"type": "Point", "coordinates": [-109.74884686244111, 71.9267149255413]}}, {"type": "Feature", "properties": {"norad_id": 29912, "name": "FENGYUN 1C DEB", "group": "fengyun-1c-debris", "lat": 74.6431019048549, "lon": 63.0273738771099, "alt_km": 748.97994539931, "timestamp": "2025-12-25T07:41:09.995349+00:00", "meta": {"OBJECT_NAME": "FENGYUN 1C DEB", "OBJECT_ID": "1999-025HJ", "EPOCH": "2025-12-24T18:36:28.145664", "MEAN_MOTION": 14.43140344, "ECCENTRICITY": 0.00432801, "INCLINATION": 98.7387, "RA_OF_ASC_NODE": 96.5286, "ARG_OF_PERICENTER": 184.2536, "MEAN_ANOMALY": 304.124, "EPHEMERIS_TYPE": 0, "CLASSIFICATION_TYPE": "U", "NORAD_CAT_ID": 29912, "ELEMENT_SET_NO": 999, "REV_AT_EPOCH": 98212, "BSTAR": 0.0021897434, "MEAN_MOTION_DOT": 7.397e-05, "MEAN_MOTION_DDOT": 0}, "tle": {"line1": "1 29912U 99025HJ  25358.77532576  .00007397  00000+0  21897-2 0  9997", "line2": "2 29912  98.7387  96.5286 0043280 184.2536 304.1240 14.43140344982123"}}, "geometry": {"type": "Point", "coordinates": [63.0273738771099, 74.6431019048549]}}, {"type": "Feature", "properties": {"norad_id": 29913, "name": "FENGYUN 1C DEB", "group": "fengyun-1c-debris", "lat": 14.249683481870656, "lon": -4.4255605731141525, "alt_km": 902.9457647782465, "timestamp": "2025-12-25T07:41:09.995359+00:00", "meta": {"OBJECT_NAME": "FENGYUN 1C DEB", "OBJECT_ID": "1999-025HK", "EPOCH": "2025-12-23T23:19:42.503808", "MEAN_MOTION": 14.07394433, "ECCENTRICITY": 0.0061958, "INCLINATION": 98.7879, "RA_OF_ASC_NODE": 356.5148, "ARG_OF_PERICENTER": 239.3121, "MEAN_ANOMALY": 147.5528, "EPHEMERIS_TYPE": 0, "CLASSIFICATION_TYPE": "U", "NORAD_CAT_ID": 29913, "ELEMENT_SET_NO": 999, "REV_AT_EPOCH": 97123, "BSTAR": 0.00019075, "MEAN_MOTION_DOT": 2.83e-06, "MEAN_MOTION_DDOT": 0}, "tle": {"line1": "1 29913U 99025HK  25357.97201972  .00000283  00000+0  19075-3 0  9995", "line2": "2 29913  98.7879 356.5148 0061958 239.3121 147.5528 14.07394433971238"}}, "geometry": {"type": "Point", "coordinates": [-4.4255605731141525, 14.249683481870656]}}, {"type": "Feature", "properties": {"norad_id": 29914, "name": "FENGYUN 1C DEB", "group": "fengyun-1c-debris", "lat": -38.01335352668478, "lon": 34.52960064611291, "alt_km": 902.2592001594139, "timestamp": "2025-12-25T07:41:09.995369+00:00", "meta": {"OBJECT_NAME": "FENGYUN 1C DEB", "OBJECT_ID": "1999-025HL", "EPOCH": "2025-12-24T20:44:01.402368", "MEAN_MOTION": 14.03132614, "ECCENTRICITY": 0.00366731, "INCLINATION": 98.8423, "RA_OF_ASC_NODE": 27.0975, "ARG_OF_PERICENTER": 82.076, "MEAN_ANOMALY": 95.959, "EPHEMERIS_TYPE": 0, "CLASSIFICATION_TYPE": "U", "NORAD_CAT_ID": 29914, "ELEMENT_SET_NO": 999, "REV_AT_EPOCH": 96956, "BSTAR": -1.9763924e-05, "MEAN_MOTION_DOT": -7.3e-07, "MEAN_MOTION_DDOT": 0}, "tle": {"line1": "1 29914U 99025HL  25358.86390512 -.00000073  00000+0 -19764-4 0  9999", "line2": "2 29914  98.8423  27.0975 0036673  82.0760  95.9590 14.03132614969566"}}, "geometry": {"type": "Point", "coordinates": [34.52960064611291, -38.01335352668478]}}, {"type": "Feature", "properties": {"norad_id": 29916, "name": "FENGYUN 1C DEB", "group": "fengyun-1c-debris", "lat": 35.586187921163884, "lon": 11.101769131858985, "alt_km": 1242.4085571803535, "timestamp": "2025-12-25T07:41:09.995379+00:00", "meta": {"OBJECT_NAME": "FENGYUN 1C DEB", "OBJECT_ID": "1999-025HN", "EPOCH": "2025-12-24T17:36:49.270176", "MEAN_MOTION": 13.56997595, "ECCENTRICITY": 0.02715212, "INCLINATION": 99.1936, "RA_OF_ASC_NODE": 17.2079, "ARG_OF_PERICENTER": 227.8115, "MEAN_ANOMALY": 184.9008, "EPHEMERIS_TYPE": 0, "CLASSIFICATION_TYPE": "U", "NORAD_CAT_ID": 29916, "ELEMENT_SET_NO": 999, "REV_AT_EPOCH": 93615, "BSTAR": 0.00057718631, "MEAN_MOTION_DOT": 4.79e-06, "MEAN_MOTION_DDOT": 0}, "tle": {"line1": "1 29916U 99025HN  25358.73390359  .00000479  00000+0  57719-3 0  9995", "line2": "2 29916  99.1936  17.2079 0271521 227.8115 184.9008 13.56997595936159"}}, "geometry": {"type": "Point", "coordinates": [11.101769131858985, 35.586187921163884]}}, {"type": "Feature", "properties": {"norad_id": 29917, "name": "FENGYUN 1C DEB", "group": "fengyun-1c-debris", "lat": 10.973434771580429, "lon": -141.7324326759233, "alt_km": 966.5071284675796, "timestamp": "2025-12-25T07:41:09.995389+00:00", "meta": {"OBJECT_NAME": "FENGYUN 1C DEB", "OBJECT_ID": "1999-025HP", "EPOCH": "2025-12-24T21:11:56.213664", "MEAN_MOTION": 13.70443599, "ECCENTRICITY": 0.02235101, "INCLINATION": 98.8765, "RA_OF_ASC_NODE": 219.6002, "ARG_OF_PERICENTER": 92.1648, "MEAN_ANOMALY": 286.9108, "EPHEMERIS_TYPE": 0, "CLASSIFICATION_TYPE": "U", "NORAD_CAT_ID": 29917, "ELEMENT_SET_NO": 999, "REV_AT_EPOCH": 94297, "BSTAR": 0.0013749745, "MEAN_MOTION_DOT": 1.414e-05, "MEAN_MOTION_DDOT": 0}, "tle": {"line1": "1 29917U 99025HP  25358.88328951  .00001414  00000+0  13750-2 0  9997", "line2": "2 29917  98.8765 219.6002 0223510  92.1648 286.9108 13.70443599942976"}}, "geometry": {"type": "Point", "coordinates": [-141.7324326759233, 10.973434771580429]}}, {"type": "Feature", "properties": {"norad_id": 29918, "name": "FENGYUN 1C DEB", "group": "fengyun-1c-debris", "lat": -1.2947845606168251, "lon": -98.1554045981278, "alt_km": 783.4259326475094, "timestamp": "2025-12-25T07:41:09.995400+00:00", "meta": {"OBJECT_NAME": "FENGYUN 1C DEB", "OBJECT_ID": "1999-025HQ", "EPOCH": "2025-12-24T19:38:41.817984", "MEAN_MOTION": 14.33687934, "ECCENTRICITY": 0.00135099, "INCLINATION": 98.8534, "RA_OF_ASC_NODE": 81.5333, "ARG_OF_PERICENTER": 278.156, "MEAN_ANOMALY": 195.168, "EPHEMERIS_TYPE": 0, "CLASSIFICATION_TYPE": "U", "NORAD_CAT_ID": 29918, "ELEMENT_SET_NO": 999, "REV_AT_EPOCH": 97967, "BSTAR": 0.0014170565, "MEAN_MOTION_DOT": 3.891e-05, "MEAN_MOTION_DDOT": 0}, "tle": {"line1": "1 29918U 99025HQ  25358.81853956  .00003891  00000+0  14171-2 0  9998", "line2": "2 29918  98.8534  81.5333 0013509 278.1560 195.1680 14.33687934979674"}}, "geometry": {"type": "Point", "coordinates": [-98.1554045981278, -1.2947845606168251]}}]}